IRIDIUM 921 [-]         
1 24873U 97034E   24071.20947721  .00021118  00000+0  65984-3 0  9990
2 24873  86.3881 336.3779 0000582 276.4891  83.6293 15.33054720460427
IRIDIUM 26 [-]          
1 24903U 97043A   24070.88977729  .00000439  00000+0  14391-3 0  9997
2 24903  86.3944 305.0335 0002082  92.1303 268.0132 14.36235640390225
IRIDIUM 22 [-]          
1 24907U 97043E   24071.35764596  .00000426  00000+0  14249-3 0  9998
2 24907  86.3953 307.9975 0002060  85.6603 274.4829 14.35131591390364
DUMMY MASS 1 [-]        
1 24925U 97048A   24071.29250372  .00000622  00000+0  67813-4 0  9992
2 24925  86.3399 349.2202 0006772   7.8168 352.3161 14.86086934436605
DUMMY MASS 2 [-]        
1 24926U 97048B   24071.17855705  .00000631  00000+0  69245-4 0  9992
2 24926  86.3401 350.7973 0008018  16.2447 343.9032 14.85846007436372
IRIDIUM 29 [-]          
1 24944U 97051A   24070.97318169  .00000495  00000+0  16496-3 0  9998
2 24944  86.4004 338.0871 0002064  78.8720 281.2708 14.35589226386797
IRIDIUM 33 [-]          
1 24946U 97051C   24071.53692877  .00000332  00000+0  11117-3 0  9999
2 24946  86.3917 337.1105 0009121 136.4012 223.7906 14.34281810386425
IRIDIUM 28 [-]          
1 24948U 97051E   24071.18133387  .00000503  00000+0  16481-3 0  9997
2 24948  86.4005 335.7825 0002289  96.1278 264.0180 14.36538199387423
